STARLINK-32499          
1 61959U 24210A   26067.37553801  .00038184  00000+0  13881-2 0  9998
2 61959  43.0084 186.8514 0003092 269.5015  90.5482 15.27620371 74728
AL MUNTHER              
1 63240U 25052AG  26068.64540749  .00017933  00000+0  65015-3 0  9992
2 63240  97.4001 323.9152 0008027 130.7043 229.4895 15.28381521 54798
